H1 CPF  1  HTS 2022  9 30 12  7731 ajisai           NONE
H2  8606101 1500    16908 2022 09 30  0  0  0 2022 10 05  0  0  0   240 1 1  0 0 0
H5  1.0100 
H9 
10 0 59854  54480.00000  0   -5499403.368    2306329.463    5118695.934
10 0 59854  54720.00000  0   -5371704.125     794289.754    5682839.798
10 0 59854  54960.00000  0   -5046784.499    -762787.319    5979246.111
10 0 59854  55200.00000  0   -4540439.250   -2298819.324    5994182.973
10 0 59854  55440.00000  0   -3874558.535   -3748147.466    5727134.498
10 0 59854  55680.00000  0   -3076160.698   -5048360.804    5190790.307
10 0 59854  55920.00000  0   -2176301.151   -6143000.413    4410437.587
10 0 59854  56160.00000  0   -1208898.041   -6984039.912    3422785.047
10 0 59854  56400.00000  0    -209505.243   -7534039.262    2274259.747
10 0 59854  56640.00000  0     785932.156   -7767866.273    1018843.913
10 0 59854  56880.00000  0    1742300.918   -7673895.613    -284456.406
10 0 59854  57120.00000  0    2626481.068   -7254611.612   -1574394.020
10 0 59854  57360.00000  0    3408404.750   -6526573.465   -2790373.704
10 0 59854  57600.00000  0    4061978.619   -5519742.889   -3875307.643
10 0 59854  57840.00000  0    4565842.549   -4276207.852   -4778290.773
10 0 59854  58080.00000  0    4903946.920   -2848372.968   -5456964.962
10 0 59854  58320.00000  0    5065946.935   -1296713.860   -5879468.660
10 0 59854  58560.00000  0    5047424.059     312800.684   -6025899.358
10 0 59854  58800.00000  0    4849942.791    1911517.625   -5889235.528
10 0 59854  59040.00000  0    4480949.498    3431028.229   -5475682.301
10 0 59854  59280.00000  0    3953522.834    4806108.067   -4804429.025
10 0 59854  59520.00000  0    3285976.587    5977561.181   -3906817.071
10 0 59854  59760.00000  0    2501311.610    6894848.294   -2824934.022
10 0 59854  60000.00000  0    1626518.646    7518373.402   -1609678.876
10 0 59854  60240.00000  0     691738.749    7821306.433    -318371.670
10 0 59854  60480.00000  0    -270698.315    7790826.814     987981.759
10 0 59854  60720.00000  0   -1227323.689    7428714.418    2247625.737
10 0 59854  60960.00000  0   -2144635.641    6751251.415    3401039.557
10 0 59854  61200.00000  0   -2990220.543    5788431.053    4393805.044
10 0 59854  61440.00000  0   -3733838.970    4582528.914    5179197.836
10 0 59854  61680.00000  0   -4348440.888    3186135.128    5720375.268
10 0 59854  61920.00000  0   -4811086.725    1659759.648    5992068.167
10 0 59854  62160.00000  0   -5103750.256      69132.104    5981710.340
10 0 59854  62400.00000  0   -5213985.611   -1517674.345    5689973.364
10 0 59854  62640.00000  0   -5135446.571   -3033176.047    5130701.705
10 0 59854  62880.00000  0   -4868242.818   -4413362.255    4330255.977
10 0 59854  63120.00000  0   -4419107.605   -5600417.089    3326286.743
10 0 59854  63360.00000  0   -3801358.200   -6545168.584    2165986.954
10 0 59854  63600.00000  0   -3034630.384   -7209160.348     903890.752
10 0 59854  63840.00000  0   -2144375.518   -7566246.862    -400685.128
10 0 59854  64080.00000  0   -1161121.935   -7603634.616   -1686437.719
10 0 59854  64320.00000  0    -119514.947   -7322314.943   -2892973.510
10 0 59854  64560.00000  0     942831.850   -6736870.839   -3963653.227
10 0 59854  64800.00000  0    1986630.504   -5874682.290   -4848242.795
10 0 59854  65040.00000  0    2972311.826   -4774587.222   -5505245.391
10 0 59854  65280.00000  0    3861472.357   -3485078.340   -5903813.509
10 0 59854  65520.00000  0    4618327.375   -2062128.430   -6025162.842
10 0 59854  65760.00000  0    5211124.066    -566748.835   -5863440.681
10 0 59854  66000.00000  0    5613475.043     937624.370   -5426022.934
10 0 59854  66240.00000  0    5805563.768    2387822.540   -4733219.225
10 0 59854  66480.00000  0    5775167.016    3723612.772   -3817388.015
10 0 59854  66720.00000  0    5518437.539    4890242.761   -2721484.056
10 0 59854  66960.00000  0    5040384.404    5840752.956   -1497079.137
10 0 59854  67200.00000  0    4354998.326    6537940.224    -201936.199
10 0 59854  67440.00000  0    3484987.629    6955872.684    1102749.563
10 0 59854  67680.00000  0    2461111.135    7080872.014    2355301.610
10 0 59854  67920.00000  0    1321126.331    6911910.277    3496542.074
10 0 59854  68160.00000  0     108400.324    6460412.568    4472636.777
10 0 59854  68400.00000  0   -1129754.720    5749496.718    5237657.263
10 0 59854  68640.00000  0   -2343946.430    4812707.939    5755730.335
10 0 59854  68880.00000  0   -3484679.345    3692342.690    6002676.468
10 0 59854  69120.00000  0   -4504370.054    2437466.764    5967089.494
10 0 59854  69360.00000  0   -5359331.814    1101717.921    5650823.775
10 0 59854  69600.00000  0   -6011652.088    -259011.198    5068874.067
10 0 59854  69840.00000  0   -6430889.634   -1588914.515    4248662.452
10 0 59854  70080.00000  0   -6595524.543   -2834553.583    3228764.459
10 0 59854  70320.00000  0   -6494089.715   -3946997.823    2057119.798
10 0 59854  70560.00000  0   -6125915.057   -4883739.963     788795.917
10 0 59854  70800.00000  0   -5501426.089   -5610304.826    -516598.137
10 0 59854  71040.00000  0   -4641962.832   -6101482.567   -1797723.104
10 0 59854  71280.00000  0   -3579110.343   -6342134.023   -2994406.409
10 0 59854  71520.00000  0   -2353563.726   -6327541.732   -4050474.799
10 0 59854  71760.00000  0   -1013576.816   -6063310.037   -4916381.896
10 0 59854  72000.00000  0     386936.233   -5564841.151   -5551505.927
10 0 59854  72240.00000  0    1790562.695   -4856436.771   -5926018.604
10 0 59854  72480.00000  0    3138730.555   -3970087.118   -6022254.966
10 0 59854  72720.00000  0    4374142.258   -2944011.428   -5835535.254
10 0 59854  72960.00000  0    5443214.137   -1821012.546   -5374405.758
10 0 59854  73200.00000  0    6298429.505    -646709.515   -4660290.493
10 0 59854  73440.00000  0    6900515.794     532295.052   -3726556.809
10 0 59854  73680.00000  0    7220339.839    1670251.941   -2617012.221
10 0 59854  73920.00000  0    7240417.406    2724037.401   -1383884.054
10 0 59854  74160.00000  0    6955938.372    3654792.437     -85359.503
10 0 59854  74400.00000  0    6375221.677    4429353.908    1217198.733
10 0 59854  74640.00000  0    5519557.446    5021408.306    2462211.802
10 0 59854  74880.00000  0    4422432.552    5412322.633    3590860.534
10 0 59854  75120.00000  0    3128170.460    5591620.869    4549914.480
10 0 59854  75360.00000  0    1690062.026    5557100.613    5294260.048
10 0 59854  75600.00000  0     168089.878    5314611.252    5789007.128
10 0 59854  75840.00000  0   -1373638.689    4877532.513    6011081.398
10 0 59854  76080.00000  0   -2869631.538    4266005.649    5950247.325
10 0 59854  76320.00000  0   -4255810.935    3505969.195    5609538.301
10 0 59854  76560.00000  0   -5472271.830    2628047.249    5005089.640
10 0 59854  76800.00000  0   -6465895.706    1666327.454    4165377.830
10 0 59854  77040.00000  0   -7192704.994     657070.314    3129894.273
10 0 59854  77280.00000  0   -7619856.328    -362606.415    1947310.832
10 0 59854  77520.00000  0   -7727179.895   -1356030.962     673209.124
10 0 59854  77760.00000  0   -7508175.985   -2288228.433    -632530.486
10 0 59854  78000.00000  0   -6970403.854   -3127075.014   -1908554.177
10 0 59854  78240.00000  0   -6135234.604   -3844314.811   -3094931.967
10 0 59854  78480.00000  0   -5036976.769   -4416405.303   -4135978.383
10 0 59854  78720.00000  0   -3721423.751   -4825169.423   -4982854.469
10 0 59854  78960.00000  0   -2243901.347   -5058246.872   -5595830.425
10 0 59854  79200.00000  0    -666911.225   -5109348.879   -5946112.961
10 0 59854  79440.00000  0     942524.916   -4978328.175   -6017167.110
10 0 59854  79680.00000  0    2515712.525   -4671078.452   -5805486.249
10 0 59854  79920.00000  0    3985217.619   -4199278.363   -5320784.604
10 0 59854  80160.00000  0    5287781.987   -3579985.700   -4585597.132
10 0 59854  80400.00000  0    6367100.282   -2835086.551   -3634289.555
10 0 59854  80640.00000  0    7176341.759   -1990608.011   -2511507.706
10 0 59854  80880.00000  0    7680294.874   -1075897.428   -1270113.905
10 0 59854  81120.00000  0    7857011.050    -122683.548      31305.427
10 0 59854  81360.00000  0    7698846.569     835955.143    1331243.795
10 0 59854  81600.00000  0    7212829.639    1766679.670    2568244.578
10 0 59854  81840.00000  0    6420325.644    2636994.201    3683872.073
10 0 59854  82080.00000  0    5356023.957    3416320.447    4625518.444
10 0 59854  82320.00000  0    4066314.257    4077004.426    5348899.162
10 0 59854  82560.00000  0    2607153.485    4595226.314    5820117.824
10 0 59854  82800.00000  0    1041539.512    4951790.143    6017211.825
10 0 59854  83040.00000  0    -563275.724    5132778.314    5931122.767
10 0 59854  83280.00000  0   -2138710.952    5130063.644    5566071.264
10 0 59854  83520.00000  0   -3617801.552    4941668.162    4939330.761
10 0 59854  83760.00000  0   -4938056.244    4571958.213    4080416.939
10 0 59854  84000.00000  0   -6044121.237    4031656.710    3029720.210
10 0 59854  84240.00000  0   -6890136.762    3337649.817    1836628.197
10 0 59854  84480.00000  0   -7441675.964    2512578.922     557217.623
10 0 59854  84720.00000  0   -7677174.744    1584215.877    -748381.316
10 0 59854  84960.00000  0   -7588780.163     584627.958   -2018822.506
10 0 59854  85200.00000  0   -7182574.470    -450844.734   -3194439.456
10 0 59854  85440.00000  0   -6478172.524   -1484765.000   -4220052.400
10 0 59854  85680.00000  0   -5507721.830   -2478886.694   -5047547.151
10 0 59854  85920.00000  0   -4314372.989   -3395506.742   -5638102.000
10 0 59854  86160.00000  0   -2950311.753   -4198837.902   -5963971.444
10 0 59855      0.00000  0   -1474449.840   -4856362.980   -6009759.764
10 0 59855    240.00000  0      50125.926   -5340131.559   -5773140.703
10 0 59855    480.00000  0    1558848.086   -5627957.885   -5264996.012
99
